{
    "links": {
        "self": "http://www.neowsapp.com/rest/v1/neo/3799650?api_key=iIulBulltgU6a56xZRHN4H3l9WmuAYTsLGpBGhQ2"
    },
    "id": "3799650",
    "neo_reference_id": "3799650",
    "name": "(2018 CH14)",
    "designation": "2018 CH14",
    "nasa_jpl_url": "http://ssd.jpl.nasa.gov/sbdb.cgi?sstr=3799650",
    "absolute_magnitude_h": 25.3,
    "estimated_diameter": {
        "kilometers": {
            "estimated_diameter_min": 0.0231502122,
            "estimated_diameter_max": 0.0517654482
        },
        "meters": {
            "estimated_diameter_min": 23.150212221,
            "estimated_diameter_max": 51.7654482198
        },
        "miles": {
            "estimated_diameter_min": 0.0143848705,
            "estimated_diameter_max": 0.0321655483
        },
        "feet": {
            "estimated_diameter_min": 75.9521422633,
            "estimated_diameter_max": 169.8341531374
        }
    },
    "is_potentially_hazardous_asteroid": false,
    "close_approach_data": [
        {
            "close_approach_date": "2018-02-08",
            "close_approach_date_full": "2018-Feb-08 19:09",
            "epoch_date_close_approach": 1518116940000,
            "relative_velocity": {
                "kilometers_per_second": "7.431092643",
                "kilometers_per_hour": "26751.9335146769",
                "miles_per_hour": "16622.6111330502"
            },
            "miss_distance": {
                "astronomical": "0.0666382933",
                "lunar": "25.9222960937",
                "kilometers": "9968946.738115271",
                "miles": "6194416.2641658998"
            },
            "orbiting_body": "Earth"
        }
    ],
    "orbital_data": {
        "orbit_id": "6",
        "orbit_determination_date": "2018-03-06 06:21:27",
        "first_observation_date": "2018-02-12",
        "last_observation_date": "2018-03-06",
        "data_arc_in_days": 22,
        "observations_used": 30,
        "orbit_uncertainty": "7",
        "minimum_orbit_intersection": ".0408596",
        "jupiter_tisserand_invariant": "3.267",
        "epoch_osculation": "2459000.5",
        "eccentricity": ".5760421425682367",
        "semi_major_axis": "2.416042581872627",
        "inclination": "1.855381280713655",
        "ascending_node_longitude": "321.4107711509229",
        "orbital_period": "1371.687886369233",
        "perihelion_distance": "1.024300236474625",
        "perihelion_argument": "162.6891833876438",
        "aphelion_distance": "3.807784927270629",
        "perihelion_time": "2459519.966914596209",
        "mean_anomaly": "223.665713524938",
        "mean_motion": ".2624503748829453",
        "equinox": "J2000",
        "orbit_class": {
            "orbit_class_type": "AMO",
            "orbit_class_description": "Near-Earth asteroid orbits similar to that of 1221 Amor",
            "orbit_class_range": "1.017 AU < q (perihelion) < 1.3 AU"
        }
    },
    "is_sentry_object": false
}